OBJECT B                
1 51825U 22019B   25254.31059198  .00022660  00000+0  49131-3 0  9995
2 51825  97.3779 332.0897 0010051  76.3754 283.8613 15.44367529196346
